ORBCOMM FM103           
1 40091U 14040F   26095.36514384  .00000899  00000+0  22689-3 0  9994
2 40091  47.0049  77.3398 0001651 214.1130 145.9650 14.58756025606759
ORBCOMM FM114           
1 41179U 15081A   26095.38030198  .00000838  00000+0  21388-3 0  9994
2 41179  47.0066 346.2045 0002525 237.2096 122.8546 14.58776344547120
ORBCOMM FM119           
1 41180U 15081B   26095.44913101  .00000844  00000+0  21536-3 0  9999
2 41180  46.9998 255.2394 0001448 284.9923  75.0802 14.58717609548383
ORBCOMM FM105           
1 41181U 15081C   26095.56040567  .00000346  00000+0  14156-3 0  9997
2 41181  47.0015 288.3610 0001922 204.2688 155.8102 14.45517398543041
ORBCOMM FM110           
1 41182U 15081D   26095.09541932  .00001272  00000+0  30567-3 0  9991
2 41182  47.0038 347.0152 0002411  93.2987 266.8174 14.58791998546952
ORBCOMM FM118           
1 41183U 15081E   26095.40402964  .00001339  00000+0  31990-3 0  9993
2 41183  47.0058 345.8772 0002715  49.5173 310.5949 14.58790442547105
ORBCOMM FM112           
1 41184U 15081F   26095.47540743  .00001022  00000+0  25268-3 0  9999
2 41184  46.9987 254.0270 0002441 232.2338 127.8327 14.58787150548336
ORBCOMM FM113           
1 41185U 15081G   26095.45270483  .00000885  00000+0  22372-3 0  9998
2 41185  47.0001 254.5070 0002095 240.2068 119.8610 14.58778824548315
ORBCOMM FM115           
1 41186U 15081H   26095.24239673  .00000963  00000+0  21936-3 0  9994
2 41186  46.9977  89.8247 0001734 304.4076  55.6647 14.63173049550530
ORBCOMM FM108           
1 41187U 15081J   26095.55238772  .00001184  00000+0  28710-3 0  9991
2 41187  47.0042 165.5864 0003489 233.9622 126.0940 14.58794515549476
ORBCOMM FM117           
1 41188U 15081K   26095.44929219  .00001122  00000+0  27406-3 0  9996
2 41188  47.0005 164.7299 0003949 237.2423 122.8082 14.58789528549509
ORBCOMM FM116           
1 41189U 15081L   26095.49865403  .00000965  00000+0  24065-3 0  9998
2 41189  47.0017 254.2842 0001130 102.8513 257.2499 14.58783270548321
