[{"OBJECT_NAME":"ORBCOMM FM103","OBJECT_ID":"2014-040F","EPOCH":"2026-04-05T08:45:48.427776","MEAN_MOTION":14.58756025,"ECCENTRICITY":0.00016515,"INCLINATION":47.0049,"RA_OF_ASC_NODE":77.3398,"ARG_OF_PERICENTER":214.113,"MEAN_ANOMALY":145.965,"EPHEMERIS_TYPE":0,"CLASSIFICATION_TYPE":"U","NORAD_CAT_ID":40091,"ELEMENT_SET_NO":999,"REV_AT_EPOCH":60675,"BSTAR":0.00022689,"MEAN_MOTION_DOT":8.99e-6,"MEAN_MOTION_DDOT":0},{"OBJECT_NAME":"ORBCOMM FM114","OBJECT_ID":"2015-081A","EPOCH":"2026-04-05T09:07:38.091072","MEAN_MOTION":14.58776344,"ECCENTRICITY":0.00025254,"INCLINATION":47.0066,"RA_OF_ASC_NODE":346.2045,"ARG_OF_PERICENTER":237.2096,"MEAN_ANOMALY":122.8546,"EPHEMERIS_TYPE":0,"CLASSIFICATION_TYPE":"U","NORAD_CAT_ID":41179,"ELEMENT_SET_NO":999,"REV_AT_EPOCH":54712,"BSTAR":0.00021387953,"MEAN_MOTION_DOT":8.38e-6,"MEAN_MOTION_DDOT":0},{"OBJECT_NAME":"ORBCOMM FM119","OBJECT_ID":"2015-081B","EPOCH":"2026-04-05T10:46:44.919264","MEAN_MOTION":14.58717609,"ECCENTRICITY":0.00014488,"INCLINATION":46.9998,"RA_OF_ASC_NODE":255.2394,"ARG_OF_PERICENTER":284.9923,"MEAN_ANOMALY":75.0802,"EPHEMERIS_TYPE":0,"CLASSIFICATION_TYPE":"U","NORAD_CAT_ID":41180,"ELEMENT_SET_NO":999,"REV_AT_EPOCH":54838,"BSTAR":0.00021536232,"MEAN_MOTION_DOT":8.44e-6,"MEAN_MOTION_DDOT":0},{"OBJECT_NAME":"ORBCOMM FM105","OBJECT_ID":"2015-081C","EPOCH":"2026-04-05T13:26:59.049888","MEAN_MOTION":14.45517398,"ECCENTRICITY":0.00019226,"INCLINATION":47.0015,"RA_OF_ASC_NODE":288.361,"ARG_OF_PERICENTER":204.2688,"MEAN_ANOMALY":155.8102,"EPHEMERIS_TYPE":0,"CLASSIFICATION_TYPE":"U","NORAD_CAT_ID":41181,"ELEMENT_SET_NO":999,"REV_AT_EPOCH":54304,"BSTAR":0.00014156041,"MEAN_MOTION_DOT":3.46e-6,"MEAN_MOTION_DDOT":0},{"OBJECT_NAME":"ORBCOMM FM110","OBJECT_ID":"2015-081D","EPOCH":"2026-04-05T02:17:24.229248","MEAN_MOTION":14.58791998,"ECCENTRICITY":0.00024118,"INCLINATION":47.0038,"RA_OF_ASC_NODE":347.0152,"ARG_OF_PERICENTER":93.2987,"MEAN_ANOMALY":266.8174,"EPHEMERIS_TYPE":0,"CLASSIFICATION_TYPE":"U","NORAD_CAT_ID":41182,"ELEMENT_SET_NO":999,"REV_AT_EPOCH":54695,"BSTAR":0.00030567036,"MEAN_MOTION_DOT":1.272e-5,"MEAN_MOTION_DDOT":0},{"OBJECT_NAME":"ORBCOMM FM118","OBJECT_ID":"2015-081E","EPOCH":"2026-04-05T09:41:48.160896","MEAN_MOTION":14.58790442,"ECCENTRICITY":0.00027158,"INCLINATION":47.0058,"RA_OF_ASC_NODE":345.8772,"ARG_OF_PERICENTER":49.5173,"MEAN_ANOMALY":310.5949,"EPHEMERIS_TYPE":0,"CLASSIFICATION_TYPE":"U","NORAD_CAT_ID":41183,"ELEMENT_SET_NO":999,"REV_AT_EPOCH":54710,"BSTAR":0.00031989743,"MEAN_MOTION_DOT":1.339e-5,"MEAN_MOTION_DDOT":0},{"OBJECT_NAME":"ORBCOMM FM112","OBJECT_ID":"2015-081F","EPOCH":"2026-04-05T11:24:35.201952","MEAN_MOTION":14.5878715,"ECCENTRICITY":0.00024418,"INCLINATION":46.9987,"RA_OF_ASC_NODE":254.027,"ARG_OF_PERICENTER":232.2338,"MEAN_ANOMALY":127.8327,"EPHEMERIS_TYPE":0,"CLASSIFICATION_TYPE":"U","NORAD_CAT_ID":41184,"ELEMENT_SET_NO":999,"REV_AT_EPOCH":54833,"BSTAR":0.00025268028,"MEAN_MOTION_DOT":1.022e-5,"MEAN_MOTION_DDOT":0},{"OBJECT_NAME":"ORBCOMM FM113","OBJECT_ID":"2015-081G","EPOCH":"2026-04-05T10:51:53.697312","MEAN_MOTION":14.58778824,"ECCENTRICITY":0.0002095,"INCLINATION":47.0001,"RA_OF_ASC_NODE":254.507,"ARG_OF_PERICENTER":240.2068,"MEAN_ANOMALY":119.861,"EPHEMERIS_TYPE":0,"CLASSIFICATION_TYPE":"U","NORAD_CAT_ID":41185,"ELEMENT_SET_NO":999,"REV_AT_EPOCH":54831,"BSTAR":0.00022372,"MEAN_MOTION_DOT":8.85e-6,"MEAN_MOTION_DDOT":0},{"OBJECT_NAME":"ORBCOMM FM115","OBJECT_ID":"2015-081H","EPOCH":"2026-04-05T05:49:03.077472","MEAN_MOTION":14.63173049,"ECCENTRICITY":0.0001734,"INCLINATION":46.9977,"RA_OF_ASC_NODE":89.8247,"ARG_OF_PERICENTER":304.4076,"MEAN_ANOMALY":55.6647,"EPHEMERIS_TYPE":0,"CLASSIFICATION_TYPE":"U","NORAD_CAT_ID":41186,"ELEMENT_SET_NO":999,"REV_AT_EPOCH":55053,"BSTAR":0.00021936,"MEAN_MOTION_DOT":9.63e-6,"MEAN_MOTION_DDOT":0},{"OBJECT_NAME":"ORBCOMM FM108","OBJECT_ID":"2015-081J","EPOCH":"2026-04-05T13:15:26.299008","MEAN_MOTION":14.58794515,"ECCENTRICITY":0.00034897,"INCLINATION":47.0042,"RA_OF_ASC_NODE":165.5864,"ARG_OF_PERICENTER":233.9622,"MEAN_ANOMALY":126.094,"EPHEMERIS_TYPE":0,"CLASSIFICATION_TYPE":"U","NORAD_CAT_ID":41187,"ELEMENT_SET_NO":999,"REV_AT_EPOCH":54947,"BSTAR":0.00028710138,"MEAN_MOTION_DOT":1.184e-5,"MEAN_MOTION_DDOT":0},{"OBJECT_NAME":"ORBCOMM FM117","OBJECT_ID":"2015-081K","EPOCH":"2026-04-05T10:46:58.845216","MEAN_MOTION":14.58789528,"ECCENTRICITY":0.0003949,"INCLINATION":47.0005,"RA_OF_ASC_NODE":164.7299,"ARG_OF_PERICENTER":237.2423,"MEAN_ANOMALY":122.8082,"EPHEMERIS_TYPE":0,"CLASSIFICATION_TYPE":"U","NORAD_CAT_ID":41188,"ELEMENT_SET_NO":999,"REV_AT_EPOCH":54950,"BSTAR":0.00027405633,"MEAN_MOTION_DOT":1.122e-5,"MEAN_MOTION_DDOT":0},{"OBJECT_NAME":"ORBCOMM FM116","OBJECT_ID":"2015-081L","EPOCH":"2026-04-05T11:58:03.708192","MEAN_MOTION":14.5878327,"ECCENTRICITY":0.00011301,"INCLINATION":47.0017,"RA_OF_ASC_NODE":254.2842,"ARG_OF_PERICENTER":102.8513,"MEAN_ANOMALY":257.2499,"EPHEMERIS_TYPE":0,"CLASSIFICATION_TYPE":"U","NORAD_CAT_ID":41189,"ELEMENT_SET_NO":999,"REV_AT_EPOCH":54832,"BSTAR":0.00024065378,"MEAN_MOTION_DOT":9.65e-6,"MEAN_MOTION_DDOT":0}]
